      2.10          N: GNSS NAV DATA                        RINEX VERSION / TYPE
fic2rin                                 09/06/2019 00:19:28 PGM / RUN BY / DATE
                                                            END OF HEADER
12 19  9  5  9 59 44.0 2.070916816592e-04-3.751665644813e-12 0.000000000000e+00
    1.300000000000e+01 4.090625000000e+01 4.380539609915e-09-1.793043275884e+00
    2.223998308182e-06 7.488830597140e-03 4.183501005173e-06 5.153586721420e+03
    3.815840000000e+05 1.322478055954e-07-4.826029551045e-01-9.313225746155e-09
    9.816744339948e-01 3.093750000000e+02 1.104801437380e+00-8.112837932264e-09
    1.382200431339e-10 1.000000000000e+00 2.069000000000e+03 0.000000000000e+00
    2.400000000000e+00 0.000000000000e+00-1.257285475731e-08 1.300000000000e+01
    3.744000000000e+05 4.000000000000e+00
30 19  9  5  9 59 44.0-3.427034243941e-05-7.958078640513e-12 0.000000000000e+00
    3.000000000000e+00 6.896875000000e+01 4.907704425588e-09-1.164012392714e+00
    3.449618816376e-06 4.195481422357e-03 8.266419172287e-06 5.153762428284e+03
    3.815840000000e+05 6.519258022308e-08-1.558021821840e+00-5.774199962616e-08
    9.399017006214e-01 2.060625000000e+02-2.899561953800e+00-8.248915028993e-09
    9.678974596714e-11 1.000000000000e+00 2.069000000000e+03 0.000000000000e+00
    2.400000000000e+00 0.000000000000e+00 3.725290298462e-09 3.000000000000e+00
    3.744000000000e+05 4.000000000000e+00
31 19  9  5  9 59 44.0 1.249182969332e-05-2.614797267597e-12 0.000000000000e+00
    1.100000000000e+01 6.462500000000e+01 4.456614207299e-09-1.408950411046e+00
    3.011897206306e-06 9.328685118817e-03 9.611248970032e-06 5.153689699173e+03
    3.815840000000e+05-4.284083843231e-08-1.570222362590e+00-1.564621925354e-07
    9.590026518641e-01 1.905625000000e+02 2.199941181523e-02-7.996047353182e-09
    1.575065607805e-10 1.000000000000e+00 2.069000000000e+03 0.000000000000e+00
    2.400000000000e+00 0.000000000000e+00-1.350417733192e-08 1.100000000000e+01
    3.744000000000e+05 4.000000000000e+00
 1 19  9  5 10  0  0.0-1.188055612147e-04-1.216449163621e-11 0.000000000000e+00
    4.700000000000e+01-2.706250000000e+01 4.168745073537e-09-4.790597572761e-01
   -1.458451151848e-06 9.100168128498e-03 8.482486009598e-06 5.153650512695e+03
    3.816000000000e+05 3.725290298462e-08 1.549175439181e+00 1.247972249985e-07
    9.766013661783e-01 2.234687500000e+02 7.600488798409e-01-8.012833766689e-09
    7.607459738377e-11 1.000000000000e+00 2.069000000000e+03 0.000000000000e+00
    2.400000000000e+00 0.000000000000e+00 5.587935447693e-09 4.700000000000e+01
    3.744000000000e+05 4.000000000000e+00
 2 19  9  5 10  0  0.0-2.983850426972e-04-8.299139153678e-12 0.000000000000e+00
    1.150000000000e+02-2.815625000000e+01 4.704124517097e-09-2.221120636533e-01
   -1.451000571251e-06 1.911500946153e-02 9.570270776749e-06 5.153532295227e+03
    3.816000000000e+05-2.440065145493e-07 1.478339352665e+00 1.769512891769e-07
    9.557000045813e-01 1.971875000000e+02-1.717554235051e+00-8.500354073867e-09
    1.671498196038e-10 1.000000000000e+00 2.069000000000e+03 0.000000000000e+00
    2.400000000000e+00 0.000000000000e+00-2.048909664154e-08 1.150000000000e+02
    3.744000000000e+05 4.000000000000e+00
 5 19  9  5 10  0  0.0-1.159962266684e-06-3.410605131648e-13 0.000000000000e+00
    5.700000000000e+01-1.375000000000e+01 4.945920303147e-09 2.424101343654e+00
   -8.381903171539e-07 5.877440096810e-03 6.852671504021e-06 5.153754018784e+03
    3.816000000000e+05 1.862645149231e-09 2.563152600931e+00-7.636845111847e-08
    9.506649199698e-01 2.438750000000e+02 7.759388209893e-01-8.226056934004e-09
    1.250052069686e-10 1.000000000000e+00 2.069000000000e+03 0.000000000000e+00
    2.400000000000e+00 0.000000000000e+00-1.117587089539e-08 5.700000000000e+01
    3.744000000000e+05 4.000000000000e+00
 6 19  9  5 10  0  0.0-4.742946475744e-05-1.227817847393e-11 0.000000000000e+00
    4.000000000000e+01-2.750000000000e+01 4.117314359812e-09-1.540312867871e-01
   -1.415610313416e-06 1.372340135276e-03 9.199604392052e-06 5.153652105331e+03
    3.816000000000e+05-5.587935447693e-08 1.540895562771e+00-2.421438694000e-08
    9.762287185189e-01 2.119375000000e+02-1.136929612676e+00-7.867470568871e-09
    1.332198348551e-10 1.000000000000e+00 2.069000000000e+03 0.000000000000e+00
    2.400000000000e+00 0.000000000000e+00 4.190951585770e-09 4.000000000000e+01
    3.744000000000e+05 4.000000000000e+00
 3 19  9  5 10  0  0.0-7.885973900557e-06-3.751665644813e-12 0.000000000000e+00
    8.900000000000e+01-1.312500000000e+01 4.574833417318e-09-1.572159355365e+00
   -6.537884473801e-07 2.494776155800e-03 6.984919309616e-06 5.153714654922e+03
    3.816000000000e+05 3.166496753693e-08 2.591381641653e+00-4.284083843231e-08
    9.638017414569e-01 2.485937500000e+02 7.267549182938e-01-8.067121742287e-09
    9.536111503035e-11 1.000000000000e+00 2.069000000000e+03 0.000000000000e+00
    2.400000000000e+00 0.000000000000e+00 1.862645149231e-09 8.900000000000e+01
    3.744000000000e+05 4.000000000000e+00
13 19  9  5 10  0  0.0-4.600221291184e-05 2.046363078989e-12 0.000000000000e+00
    7.000000000000e+00 2.906250000000e+00 4.334823419938e-09 8.143644109636e-01
    6.332993507385e-08 3.720382344909e-03 9.285286068916e-06 5.153668642044e+03
    3.816000000000e+05-1.117587089539e-08-2.521557247838e+00 1.676380634308e-08
    9.681167090326e-01 2.039062500000e+02 1.211317910059e+00-7.949616847736e-09
   -2.425101015191e-10 1.000000000000e+00 2.069000000000e+03 0.000000000000e+00
    2.400000000000e+00 0.000000000000e+00-1.117587089539e-08 7.000000000000e+00
    3.744000000000e+05 4.000000000000e+00
 7 19  9  5 10  0  0.0-9.990064427257e-05-7.958078640513e-12 0.000000000000e+00
    1.010000000000e+02 6.215625000000e+01 4.563761527558e-09-1.112948258465e+00
    3.397464752197e-06 1.315304345917e-02 8.219853043556e-06 5.153737854004e+03
    3.816000000000e+05 3.129243850708e-07-1.584696166853e+00 9.685754776001e-08
    9.544897500093e-01 2.143750000000e+02-2.431944647273e+00-8.097480149694e-09
    9.393248409357e-11 1.000000000000e+00 2.069000000000e+03 0.000000000000e+00
    2.400000000000e+00 0.000000000000e+00-1.117587089539e-08 1.010000000000e+02
    3.744000000000e+05 4.000000000000e+00
 9 19  9  5 10  0  0.0-2.359878271818e-05-9.322320693173e-12 0.000000000000e+00
    6.000000000000e+01-1.303125000000e+01 4.635193074397e-09 2.156156186777e+00
   -6.463378667831e-07 1.354514155537e-03 8.743256330490e-06 5.153605260849e+03
    3.816000000000e+05 2.607703208923e-08-2.660304352743e+00 2.421438694000e-08
    9.528282715221e-01 2.058750000000e+02 1.679257185836e+00-8.073193423768e-09
   -1.725071856167e-10 1.000000000000e+00 2.069000000000e+03 0.000000000000e+00
    2.400000000000e+00 0.000000000000e+00 1.396983861923e-09 6.000000000000e+01
    3.744000000000e+05 4.000000000000e+00
22 19  9  5 10  0  0.0-7.516457699239e-04-3.979039320257e-12 0.000000000000e+00
    2.200000000000e+01-1.193750000000e+01 5.469870699213e-09 8.075898553133e-01
   -7.972121238708e-07 6.950888666324e-03 6.809830665588e-06 5.153712080002e+03
    3.816000000000e+05-7.823109626770e-08 2.514636415009e+00-1.210719347000e-07
    9.283814211669e-01 2.349062500000e+02-1.291241171161e+00-8.629288015912e-09
    1.010756387775e-10 1.000000000000e+00 2.069000000000e+03 0.000000000000e+00
    2.400000000000e+00 0.000000000000e+00-1.816079020500e-08 2.200000000000e+01
    3.744000000000e+05 4.000000000000e+00
27 19  9  5 10  0  0.0-4.582945257425e-05-1.193711796077e-11 0.000000000000e+00
    1.800000000000e+01-4.946875000000e+01 4.322680056975e-09 1.702456540114e+00
   -2.514570951462e-06 7.178535335697e-03 5.943700671196e-06 5.153651876450e+03
    3.816000000000e+05-8.754432201385e-08 4.937418064652e-01 1.154839992523e-07
    9.787719489347e-01 2.756250000000e+02 5.172060308386e-01-8.104266146643e-09
   -1.767930784271e-10 1.000000000000e+00 2.069000000000e+03 0.000000000000e+00
    2.400000000000e+00 0.000000000000e+00 1.396983861923e-09 1.800000000000e+01
    3.744000000000e+05 4.000000000000e+00
24 19  9  5 10  0  0.0-1.733191311359e-06-4.547473508865e-13 0.000000000000e+00
    3.400000000000e+01 7.078125000000e+01 5.004851329290e-09-1.867282387807e-01
    3.732740879059e-06 8.609795710072e-03 9.180977940559e-06 5.153707799911e+03
    3.816000000000e+05 8.195638656616e-08-1.652388683798e+00 8.195638656616e-08
    9.377025426862e-01 1.922812500000e+02 6.024644166612e-01-8.411064640318e-09
   -6.071681481333e-12 1.000000000000e+00 2.069000000000e+03 0.000000000000e+00
    2.400000000000e+00 0.000000000000e+00 2.793967723846e-09 3.400000000000e+01
    3.744000000000e+05 4.000000000000e+00
19 19  9  5 10  0  0.0-2.714311704040e-04 5.115907697473e-12 0.000000000000e+00
    1.700000000000e+01-4.831250000000e+01 4.091956160685e-09-1.885530776725e+00
   -2.346932888031e-06 9.467232157476e-03 7.079914212227e-06 5.153648143768e+03
    3.816000000000e+05 7.078051567078e-08 5.965434005642e-01 1.527369022369e-07
    9.822892297064e-01 2.516875000000e+02 1.494810980763e+00-7.833897741857e-09
   -1.100045821324e-10 1.000000000000e+00 2.069000000000e+03 0.000000000000e+00
    2.400000000000e+00 0.000000000000e+00-1.536682248116e-08 1.700000000000e+01
    3.744000000000e+05 4.000000000000e+00
29 19  9  5 10  0  0.0 1.061297953129e-04-1.023181539495e-11 0.000000000000e+00
    3.800000000000e+01-6.565625000000e+01 4.078384166785e-09 1.969230948522e+00
   -3.421679139137e-06 1.214390387759e-03 6.301328539848e-06 5.153702022552e+03
    3.816000000000e+05-5.587935447693e-09 5.617977795554e-01-5.029141902924e-08
    9.858899392332e-01 2.670625000000e+02 1.976950392719e+00-7.987475567561e-09
   -2.464388365953e-10 1.000000000000e+00 2.069000000000e+03 0.000000000000e+00
    2.400000000000e+00 0.000000000000e+00-9.778887033463e-09 3.800000000000e+01
    3.744000000000e+05 4.000000000000e+00
